{"type": "FeatureCollection", "features": [ {"type": "Feature", "properties": {"norad_id": 30662, "name": "FENGYUN 1C DEB", "group": "fengyun-1c-debris", "lat": 19.089772534901904, "lon": 35.8238449513487, "alt_km": 820.4266317270867, "timestamp": "2025-12-08T19:31:49.087022+00:00", "meta": {"OBJECT_NAME": "FENGYUN 1C DEB", "OBJECT_ID": "1999-025APU", "EPOCH": "2025-12-08T02:41:46.149216", "MEAN_MOTION": 14.22313682, "ECCENTRICITY": 0.00327925, "INCLINATION": 99.0533, "RA_OF_ASC_NODE": 38.267, "ARG_OF_PERICENTER": 284.5109, "MEAN_ANOMALY": 105.0467, "EPHEMERIS_TYPE": 0, "CLASSIFICATION_TYPE": "U", "NORAD_CAT_ID": 30662, "ELEMENT_SET_NO": 999, "REV_AT_EPOCH": 96573, "BSTAR": 0.0020415019, "MEAN_MOTION_DOT": 4.518e-05, "MEAN_MOTION_DDOT": 0}, "tle": {"line1": "1 30662U 99025APU 25342.11233969  .00004518  00000+0  20415-2 0  9993", "line2": "2 30662  99.0533  38.2670 0032792 284.5109 105.0467 14.22313682965731"}}, "geometry": {"type": "Point", "coordinates": [35.8238449513487, 19.089772534901904]}}, {"type": "Feature", "properties": {"norad_id": 30663, "name": "FENGYUN 1C DEB", "group": "fengyun-1c-debris", "lat": -41.08208794733728, "lon": 71.95185138478465, "alt_km": 1027.2233841292336, "timestamp": "2025-12-08T19:31:49.087031+00:00", "meta": {"OBJECT_NAME": "FENGYUN 1C DEB", "OBJECT_ID": "1999-025APV", "EPOCH": "2025-12-05T12:25:41.665440", "MEAN_MOTION": 13.23094732, "ECCENTRICITY": 0.06475188, "INCLINATION": 99.3024, "RA_OF_ASC_NODE": 257.2057, "ARG_OF_PERICENTER": 154.1824, "MEAN_ANOMALY": 209.3175, "EPHEMERIS_TYPE": 0, "CLASSIFICATION_TYPE": "U", "NORAD_CAT_ID": 30663, "ELEMENT_SET_NO": 999, "REV_AT_EPOCH": 88952, "BSTAR": 0.0022629214, "MEAN_MOTION_DOT": 2.911e-05, "MEAN_MOTION_DDOT": 0}, "tle": {"line1": "1 30663U 99025APV 25339.51784335  .00002911  00000+0  22629-2 0  9996", "line2": "2 30663  99.3024 257.2057 0647518 154.1824 209.3175 13.23094732889524"}}, "geometry": {"type": "Point", "coordinates": [71.95185138478465, -41.08208794733728]}}, {"type": "Feature", "properties": {"norad_id": 30665, "name": "FENGYUN 1C DEB", "group": "fengyun-1c-debris", "lat": -59.3261142233955, "lon": 118.43476161382668, "alt_km": 814.8338073220502, "timestamp": "2025-12-08T19:31:49.087040+00:00", "meta": {"OBJECT_NAME": "FENGYUN 1C DEB", "OBJECT_ID": "1999-025APX", "EPOCH": "2025-12-07T09:09:01.611360", "MEAN_MOTION": 14.12295731, "ECCENTRICITY": 0.00675953, "INCLINATION": 99.2082, "RA_OF_ASC_NODE": 312.8354, "ARG_OF_PERICENTER": 217.8348, "MEAN_ANOMALY": 303.1657, "EPHEMERIS_TYPE": 0, "CLASSIFICATION_TYPE": "U", "NORAD_CAT_ID": 30665, "ELEMENT_SET_NO": 999, "REV_AT_EPOCH": 95894, "BSTAR": 0.0027486992, "MEAN_MOTION_DOT": 5.125e-05, "MEAN_MOTION_DDOT": 0}, "tle": {"line1": "1 30665U 99025APX 25341.38126865  .00005125  00000+0  27487-2 0  9991", "line2": "2 30665  99.2082 312.8354 0067595 217.8348 303.1657 14.12295731958948"}}, "geometry": {"type": "Point", "coordinates": [118.43476161382668, -59.3261142233955]}}, {"type": "Feature", "properties": {"norad_id": 30666, "name": "FENGYUN 1C DEB", "group": "fengyun-1c-debris", "lat": -9.02849945640209, "lon": 145.1402073593706, "alt_km": 852.2689089460009, "timestamp": "2025-12-08T19:31:49.087049+00:00", "meta": {"OBJECT_NAME": "FENGYUN 1C DEB", "OBJECT_ID": "1999-025APY", "EPOCH": "2025-12-08T05:02:18.376224", "MEAN_MOTION": 14.02551597, "ECCENTRICITY": 0.00609547, "INCLINATION": 98.8225, "RA_OF_ASC_NODE": 325.9695, "ARG_OF_PERICENTER": 156.4581, "MEAN_ANOMALY": 225.0162, "EPHEMERIS_TYPE": 0, "CLASSIFICATION_TYPE": "U", "NORAD_CAT_ID": 30666, "ELEMENT_SET_NO": 999, "REV_AT_EPOCH": 96047, "BSTAR": 0.00032269796, "MEAN_MOTION_DOT": 4.63e-06, "MEAN_MOTION_DDOT": 0}, "tle": {"line1": "1 30666U 99025APY 25342.20993491  .00000463  00000+0  32270-3 0  9998", "line2": "2 30666  98.8225 325.9695 0060954 156.4581 225.0162 14.02551597960473"}}, "geometry": {"type": "Point", "coordinates": [145.1402073593706, -9.02849945640209]}}, {"type": "Feature", "properties": {"norad_id": 30668, "name": "FENGYUN 1C DEB", "group": "fengyun-1c-debris", "lat": -26.737408480726323, "lon": 60.44557214350283, "alt_km": 842.9511196739877, "timestamp": "2025-12-08T19:31:49.087058+00:00", "meta": {"OBJECT_NAME": "FENGYUN 1C DEB", "OBJECT_ID": "1999-025AQA", "EPOCH": "2025-12-08T04:37:19.485696", "MEAN_MOTION": 14.1228295, "ECCENTRICITY": 0.00787086, "INCLINATION": 99.1314, "RA_OF_ASC_NODE": 55.1655, "ARG_OF_PERICENTER": 258.7977, "MEAN_ANOMALY": 156.8728, "EPHEMERIS_TYPE": 0, "CLASSIFICATION_TYPE": "U", "NORAD_CAT_ID": 30668, "ELEMENT_SET_NO": 999, "REV_AT_EPOCH": 95991, "BSTAR": 0.0023525867, "MEAN_MOTION_DOT": 4.413e-05, "MEAN_MOTION_DDOT": 0}, "tle": {"line1": "1 30668U 99025AQA 25342.19258664  .00004413  00000+0  23526-2 0  9996", "line2": "2 30668  99.1314  55.1655 0078708 258.7977 156.8728 14.12282950959918"}}, "geometry": {"type": "Point", "coordinates": [60.44557214350283, -26.737408480726323]}}, {"type": "Feature", "properties": {"norad_id": 30669, "name": "FENGYUN 1C DEB", "group": "fengyun-1c-debris", "lat": 16.50146786311793, "lon": 102.26543210313343, "alt_km": 807.1081169579029, "timestamp": "2025-12-08T19:31:49.087068+00:00", "meta": {"OBJECT_NAME": "FENGYUN 1C DEB", "OBJECT_ID": "1999-025AQB", "EPOCH": "2025-12-08T07:30:12.459744", "MEAN_MOTION": 14.02701655, "ECCENTRICITY": 0.01175708, "INCLINATION": 98.6341, "RA_OF_ASC_NODE": 279.2104, "ARG_OF_PERICENTER": 189.1347, "MEAN_ANOMALY": 325.5078, "EPHEMERIS_TYPE": 0, "CLASSIFICATION_TYPE": "U", "NORAD_CAT_ID": 30669, "ELEMENT_SET_NO": 999, "REV_AT_EPOCH": 95391, "BSTAR": 0.0017670199, "MEAN_MOTION_DOT": 2.86e-05, "MEAN_MOTION_DDOT": 0}, "tle": {"line1": "1 30669U 99025AQB 25342.31264421  .00002860  00000+0  17670-2 0  9996", "line2": "2 30669  98.6341 279.2104 0117570 189.1347 325.5078 14.02701655953914"}}, "geometry": {"type": "Point", "coordinates": [102.26543210313343, 16.50146786311793]}}, {"type": "Feature", "properties": {"norad_id": 30670, "name": "FENGYUN 1C DEB", "group": "fengyun-1c-debris", "lat": -78.44644326362967, "lon": 158.7389538313725, "alt_km": 875.7101863110656, "timestamp": "2025-12-08T19:31:49.087077+00:00", "meta": {"OBJECT_NAME": "FENGYUN 1C DEB", "OBJECT_ID": "1999-025AQC", "EPOCH": "2025-12-08T01:36:41.230368", "MEAN_MOTION": 14.15814508, "ECCENTRICITY": 0.00399858, "INCLINATION": 98.7115, "RA_OF_ASC_NODE": 26.6015, "ARG_OF_PERICENTER": 82.6907, "MEAN_ANOMALY": 336.3647, "EPHEMERIS_TYPE": 0, "CLASSIFICATION_TYPE": "U", "NORAD_CAT_ID": 30670, "ELEMENT_SET_NO": 999, "REV_AT_EPOCH": 97086, "BSTAR": 0.00013307804, "MEAN_MOTION_DOT": 2.21e-06, "MEAN_MOTION_DDOT": 0}, "tle": {"line1": "1 30670U 99025AQC 25342.06714387  .00000221  00000+0  13308-3 0  9995", "line2": "2 30670  98.7115  26.6015 0039985  82.6907 336.3647 14.15814508970864"}}, "geometry": {"type": "Point", "coordinates": [158.7389538313725, -78.44644326362967]}}, {"type": "Feature", "properties": {"norad_id": 30671, "name": "FENGYUN 1C DEB", "group": "fengyun-1c-debris", "lat": 24.99637117428965, "lon": -128.1314308623362, "alt_km": 939.9999916276283, "timestamp": "2025-12-08T19:31:49.087086+00:00", "meta": {"OBJECT_NAME": "FENGYUN 1C DEB", "OBJECT_ID": "1999-025AQD", "EPOCH": "2025-12-08T03:27:14.351904", "MEAN_MOTION": 13.95439038, "ECCENTRICITY": 0.01264276, "INCLINATION": 99.2526, "RA_OF_ASC_NODE": 46.8377, "ARG_OF_PERICENTER": 45.8929, "MEAN_ANOMALY": 344.0872, "EPHEMERIS_TYPE": 0, "CLASSIFICATION_TYPE": "U", "NORAD_CAT_ID": 30671, "ELEMENT_SET_NO": 999, "REV_AT_EPOCH": 95131, "BSTAR": 0.0015328145, "MEAN_MOTION_DOT": 2.179e-05, "MEAN_MOTION_DDOT": 0}, "tle": {"line1": "1 30671U 99025AQD 25342.14391611  .00002179  00000+0  15328-2 0  9993", "line2": "2 30671  99.2526  46.8377 0126427  45.8929 344.0872 13.95439038951318"}}, "geometry": {"type": "Point", "coordinates": [-128.1314308623362, 24.99637117428965]}}, {"type": "Feature", "properties": {"norad_id": 30673, "name": "FENGYUN 1C DEB", "group": "fengyun-1c-debris", "lat": -39.01067715810585, "lon": -155.25932717085735, "alt_km": 872.5438978408692, "timestamp": "2025-12-08T19:31:49.087095+00:00", "meta": {"OBJECT_NAME": "FENGYUN 1C DEB", "OBJECT_ID": "1999-025AQF", "EPOCH": "2025-12-08T03:23:40.147296", "MEAN_MOTION": 14.03453227, "ECCENTRICITY": 0.00524596, "INCLINATION": 98.9209, "RA_OF_ASC_NODE": 31.3915, "ARG_OF_PERICENTER": 155.4427, "MEAN_ANOMALY": 268.4878, "EPHEMERIS_TYPE": 0, "CLASSIFICATION_TYPE": "U", "NORAD_CAT_ID": 30673, "ELEMENT_SET_NO": 999, "REV_AT_EPOCH": 96467, "BSTAR": 0.00031119372, "MEAN_MOTION_DOT": 4.5e-06, "MEAN_MOTION_DDOT": 0}, "tle": {"line1": "1 30673U 99025AQF 25342.14143689  .00000450  00000+0  31119-3 0  9992", "line2": "2 30673  98.9209  31.3915 0052459 155.4427 268.4878 14.03453227964679"}}, "geometry": {"type": "Point", "coordinates": [-155.25932717085735, -39.01067715810585]}}, {"type": "Feature", "properties": {"norad_id": 30674, "name": "FENGYUN 1C DEB", "group": "fengyun-1c-debris", "lat": -28.769630227579963, "lon": 150.03721366435556, "alt_km": 573.0090824016788, "timestamp": "2025-12-08T19:31:49.087104+00:00", "meta": {"OBJECT_NAME": "FENGYUN 1C DEB", "OBJECT_ID": "1999-025AQG", "EPOCH": "2025-12-07T22:46:21.585216", "MEAN_MOTION": 14.9454222, "ECCENTRICITY": 0.00247495, "INCLINATION": 98.9425, "RA_OF_ASC_NODE": 144.0929, "ARG_OF_PERICENTER": 313.5363, "MEAN_ANOMALY": 46.3797, "EPHEMERIS_TYPE": 0, "CLASSIFICATION_TYPE": "U", "NORAD_CAT_ID": 30674, "ELEMENT_SET_NO": 999, "REV_AT_EPOCH": 97280, "BSTAR": 0.0086173802, "MEAN_MOTION_DOT": 0.00094848, "MEAN_MOTION_DDOT": 0}, "tle": {"line1": "1 30674U 99025AQG 25341.94886094  .00094848  00000+0  86174-2 0  9998", "line2": "2 30674  98.9425 144.0929 0024749 313.5363  46.3797 14.94542220972803"}}, "geometry": {"type": "Point", "coordinates": [150.03721366435556, -28.769630227579963]}}]}